ONEWEB-0597             
1 54663U 22166X   24154.35813326  .00000006  00000+0 -16739-4 0  9994
2 54663  87.9307  32.2415 0001591  89.6890 270.4426 13.21824373 73147
ONEWEB-0600             
1 54664U 22166Y   24154.41649238 -.00000029  00000+0 -10235-3 0  9991
2 54664  87.9300  32.2711 0001743  87.5044 272.6289 13.21825206 73122
ONEWEB-0601             
1 54665U 22166Z   24154.40860016  .00000001  00000+0 -28332-4 0  9997
2 54665  87.9308  32.2358 0001339  82.8780 277.2506 13.21824797 73312
ONEWEB-0602             
1 54666U 22166AA  24154.37390984  .00000076  00000+0  15218-3 0  9995
2 54666  87.9307  32.2466 0001525  88.3235 271.8074 13.21824238 73157
ONEWEB-0603             
1 54667U 22166AB  24154.37863109  .00000060  00000+0  11432-3 0  9997
2 54667  87.9310  32.2469 0001485  88.6674 271.4630 13.21823547 73088
ONEWEB-0604             
1 54668U 22166AC  24154.36601089  .00000030  00000+0  41538-4 0  9992
2 54668  87.9302  32.2300 0001943  91.6787 268.4569 13.21826972 73040
ONEWEB-0605             
1 54669U 22166AD  24154.35971512  .00000014  00000+0  31111-5 0  9992
2 54669  87.9302  32.2644 0001213  76.7795 283.3474 13.21824483 73119
ONEWEB-0606             
1 54670U 22166AE  24154.60888631  .00000075  00000+0  14987-3 0  9998
2 54670  87.9306  32.2041 0002029  79.5284 280.6078 13.21824345 73203
